{"fetched_at":"2026-04-05T12:57:33Z","count":17389,"tles":[{"name":"COSMOS 2547 (705K)","line1":"1 46805U 20075A   26086.76204793 -.00000031  00000+0  00000+0 0  9990","line2":"2 46805  64.5985 195.1905 0007370 232.5213 127.4084  2.13100219 42176","category":"Other"}]}